[
    {
        "Altitude(m)": 611967.1426208473,
        "Argument of Periapsis(deg)": 0.0,
        "Eccentricity": 0.0,
        "Inclination(deg)": 60.0,
        "Latitude(deg)": 59.14005150742838,
        "Longitude(deg)": -83.90792993229421,
        "Mean Anomaly(deg)": -261.8182,
        "RAAN(deg)": 270.0,
        "Satellite Name": "Test1 1194",
        "Satellite Number": 1194,
        "Semi-Major Axis(m)": 6980739.136638005,
        "Time(s)": 0
    },
    {
        "Altitude(m)": 611934.342338618,
        "Argument of Periapsis(deg)": 0.00010418945913296404,
        "Eccentricity": 0.0,
        "Inclination(deg)": 60.0,
        "Latitude(deg)": 58.98641356443394,
        "Longitude(deg)": -82.78468785553198,
        "Mean Anomaly(deg)": -261.1980938545382,
        "RAAN(deg)": 269.99957995086027,
        "Satellite Name": "Test1 1194",
        "Satellite Number": 1194,
        "Semi-Major Axis(m)": 6980739.136638005,
        "Time(s)": 10
    },
    {
        "Altitude(m)": 611899.2374258154,
        "Argument of Periapsis(deg)": 0.0002083789182659281,
        "Eccentricity": 0.0,
        "Inclination(deg)": 60.0,
        "Latitude(deg)": 58.82239755403619,
        "Longitude(deg)": -81.67211102904743,
        "Mean Anomaly(deg)": -260.57798770907635,
        "RAAN(deg)": 269.9991599017205,
        "Satellite Name": "Test1 1194",
        "Satellite Number": 1194,
        "Semi-Major Axis(m)": 6980739.136638005,
        "Time(s)": 20
    },
    {
        "Altitude(m)": 611861.8481168651,
        "Argument of Periapsis(deg)": 0.00031256837739889213,
        "Eccentricity": 0.0,
        "Inclination(deg)": 60.0,
        "Latitude(deg)": 58.64816652454801,
        "Longitude(deg)": -80.57071124166734,
        "Mean Anomaly(deg)": -259.9578815636145,
        "RAAN(deg)": 269.9987398525808,
        "Satellite Name": "Test1 1194",
        "Satellite Number": 1194,
        "Semi-Major Axis(m)": 6980739.136638005,
        "Time(s)": 30
    },
    {
        "Altitude(m)": 611822.1959720295,
        "Argument of Periapsis(deg)": 0.0004167578365318562,
        "Eccentricity": 0.0,
        "Inclination(deg)": 60.0,
        "Latitude(deg)": 58.46388997318342,
        "Longitude(deg)": -79.48095953406647,
        "Mean Anomaly(deg)": -259.3377754181527,
        "RAAN(deg)": 269.99831980344106,
        "Satellite Name": "Test1 1194",
        "Satellite Number": 1194,
        "Semi-Major Axis(m)": 6980739.136638005,
        "Time(s)": 40
    },
    {
        "Altitude(m)": 611780.3038671813,
        "Argument of Periapsis(deg)": 0.0005209472956648203,
        "Eccentricity": 0.0,
        "Inclination(deg)": 60.0,
        "Latitude(deg)": 58.26974312954852,
        "Longitude(deg)": -78.40328697507968,
        "Mean Anomaly(deg)": -258.71766927269084,
        "RAAN(deg)": 269.9978997543013,
        "Satellite Name": "Test1 1194",
        "Satellite Number": 1194,
        "Semi-Major Axis(m)": 6980739.136638005,
        "Time(s)": 50
    },
    {
        "Altitude(m)": 611736.1959830194,
        "Argument of Periapsis(deg)": 0.0006251367547977843,
        "Eccentricity": 0.0,
        "Inclination(deg)": 60.0,
        "Latitude(deg)": 58.06590624558972,
        "Longitude(deg)": -77.33808421514416,
        "Mean Anomaly(deg)": -258.097563127229,
        "RAAN(deg)": 269.99747970516154,
        "Satellite Name": "Test1 1194",
        "Satellite Number": 1194,
        "Semi-Major Axis(m)": 6980739.136638005,
        "Time(s)": 60
    },
    {
        "Altitude(m)": 611689.8977935924,
        "Argument of Periapsis(deg)": 0.0007293262139307483,
        "Eccentricity": 0.0,
        "Inclination(deg)": 60.0,
        "Latitude(deg)": 57.85256389738121,
        "Longitude(deg)": -76.28570130950102,
        "Mean Anomaly(deg)": -257.4774569817672,
        "RAAN(deg)": 269.9970596560218,
        "Satellite Name": "Test1 1194",
        "Satellite Number": 1194,
        "Semi-Major Axis(m)": 6980739.136638005,
        "Time(s)": 70
    },
    {
        "Altitude(m)": 611641.4360542599,
        "Argument of Periapsis(deg)": 0.0008335156730637124,
        "Eccentricity": 0.0,
        "Inclination(deg)": 60.0,
        "Latitude(deg)": 57.629904303593975,
        "Longitude(deg)": -75.24644930164695,
        "Mean Anomaly(deg)": -256.8573508363054,
        "RAAN(deg)": 269.99663960688207,
        "Satellite Name": "Test1 1194",
        "Satellite Number": 1194,
        "Semi-Major Axis(m)": 6980739.136638005,
        "Time(s)": 80
    },
    {
        "Altitude(m)": 611590.8387890017,
        "Argument of Periapsis(deg)": 0.0009377051321966765,
        "Eccentricity": 0.0,
        "Inclination(deg)": 60.0,
        "Latitude(deg)": 57.39811866491712,
        "Longitude(deg)": -74.22060051736486,
        "Mean Anomaly(deg)": -256.23724469084357,
        "RAAN(deg)": 269.99621955774234,
        "Satellite Name": "Test1 1194",
        "Satellite Number": 1194,
        "Semi-Major Axis(m)": 6980739.136638005,
        "Time(s)": 90
    },
    {
        "Altitude(m)": 611538.1352771524,
        "Argument of Periapsis(deg)": 0.0010418945913296407,
        "Eccentricity": 0.0,
        "Inclination(deg)": 60.0,
        "Latitude(deg)": 57.15740052811827,
        "Longitude(deg)": -73.20838905731765,
        "Mean Anomaly(deg)": -255.61713854538166,
        "RAAN(deg)": 269.99579950860254,
        "Satellite Name": "Test1 1194",
        "Satellite Number": 1194,
        "Semi-Major Axis(m)": 6980739.136638005,
        "Time(s)": 100
    },
    {
        "Altitude(m)": 611483.3560394847,
        "Argument of Periapsis(deg)": 0.0011460840504626045,
        "Eccentricity": 0.0,
        "Inclination(deg)": 60.0,
        "Latitude(deg)": 56.907945177842095,
        "Longitude(deg)": -72.21001297577016,
        "Mean Anomaly(deg)": -254.99703239991987,
        "RAAN(deg)": 269.99537945946287,
        "Satellite Name": "Test1 1194",
        "Satellite Number": 1194,
        "Semi-Major Axis(m)": 6980739.136638005,
        "Time(s)": 110
    },
    {
        "Altitude(m)": 611426.532823764,
        "Argument of Periapsis(deg)": 0.0012502735095955685,
        "Eccentricity": 0.0,
        "Inclination(deg)": 60.0,
        "Latitude(deg)": 56.64994905867226,
        "Longitude(deg)": -71.22563509446783,
        "Mean Anomaly(deg)": -254.37692625445803,
        "RAAN(deg)": 269.99495941032313,
        "Satellite Name": "Test1 1194",
        "Satellite Number": 1194,
        "Semi-Major Axis(m)": 6980739.136638005,
        "Time(s)": 120
    },
    {
        "Altitude(m)": 611367.6985896465,
        "Argument of Periapsis(deg)": 0.0013544629687285324,
        "Eccentricity": 0.0,
        "Inclination(deg)": 60.0,
        "Latitude(deg)": 56.38360922942489,
        "Longitude(deg)": -70.25538393981162,
        "Mean Anomaly(deg)": -253.7568201089962,
        "RAAN(deg)": 269.99453936118334,
        "Satellite Name": "Test1 1194",
        "Satellite Number": 1194,
        "Semi-Major Axis(m)": 6980739.136638005,
        "Time(s)": 130
    },
    {
        "Altitude(m)": 611306.8874930162,
        "Argument of Periapsis(deg)": 0.0014586524278614966,
        "Eccentricity": 0.0,
        "Inclination(deg)": 60.0,
        "Latitude(deg)": 56.1091228511152,
        "Longitude(deg)": -69.2993562923342,
        "Mean Anomaly(deg)": -253.13671396353436,
        "RAAN(deg)": 269.9941193120436,
        "Satellite Name": "Test1 1194",
        "Satellite Number": 1194,
        "Semi-Major Axis(m)": 6980739.136638005,
        "Time(s)": 140
    },
    {
        "Altitude(m)": 611244.1348697655,
        "Argument of Periapsis(deg)": 0.0015628418869944607,
        "Eccentricity": 0.0,
        "Inclination(deg)": 60.0,
        "Latitude(deg)": 55.826686709550025,
        "Longitude(deg)": -68.3576183000488,
        "Mean Anomaly(deg)": -252.51660781807257,
        "RAAN(deg)": 269.9936992629039,
        "Satellite Name": "Test1 1194",
        "Satellite Number": 1194,
        "Semi-Major Axis(m)": 6980739.136638005,
        "Time(s)": 150
    },
    {
        "Altitude(m)": 611179.4772189667,
        "Argument of Periapsis(deg)": 0.0016670313461274247,
        "Eccentricity": 0.0,
        "Inclination(deg)": 60.0,
        "Latitude(deg)": 55.53649677304575,
        "Longitude(deg)": -67.43020664725144,
        "Mean Anomaly(deg)": -251.89650167261073,
        "RAAN(deg)": 269.99327921376414,
        "Satellite Name": "Test1 1194",
        "Satellite Number": 1194,
        "Semi-Major Axis(m)": 6980739.136638005,
        "Time(s)": 160
    },
    {
        "Altitude(m)": 611112.9521854838,
        "Argument of Periapsis(deg)": 0.0017712208052603888,
        "Eccentricity": 0.0,
        "Inclination(deg)": 60.0,
        "Latitude(deg)": 55.238747785364325,
        "Longitude(deg)": -66.51713127195008,
        "Mean Anomaly(deg)": -251.2763955271489,
        "RAAN(deg)": 269.9928591646244,
        "Satellite Name": "Test1 1194",
        "Satellite Number": 1194,
        "Semi-Major Axis(m)": 6980739.136638005,
        "Time(s)": 170
    },
    {
        "Altitude(m)": 611044.5985420503,
        "Argument of Periapsis(deg)": 0.001875410264393353,
        "Eccentricity": 0.0,
        "Inclination(deg)": 60.0,
        "Latitude(deg)": 54.93363289360025,
        "Longitude(deg)": -65.61837658818806,
        "Mean Anomaly(deg)": -250.65628938168706,
        "RAAN(deg)": 269.9924391154846,
        "Satellite Name": "Test1 1194",
        "Satellite Number": 1194,
        "Semi-Major Axis(m)": 6980739.136638005,
        "Time(s)": 180
    },
    {
        "Altitude(m)": 610974.4561707728,
        "Argument of Periapsis(deg)": 0.0019795997235263173,
        "Eccentricity": 0.0,
        "Inclination(deg)": 60.0,
        "Latitude(deg)": 54.62134331043345,
        "Longitude(deg)": -64.73390270991861,
        "Mean Anomaly(deg)": -250.03618323622527,
        "RAAN(deg)": 269.99201906634494,
        "Satellite Name": "Test1 1194",
        "Satellite Number": 1194,
        "Semi-Major Axis(m)": 6980739.136638005,
        "Time(s)": 190
    }
]